{
  "norad_id": 59232,
  "name": "STARLINK-31305",
  "history": [
    {
      "epoch": "2026-03-28T08:36:46.403424Z",
      "apogee_km": 483.9026904414786,
      "perigee_km": 482.1063063743659,
      "latitude_deg": 3.4294276331828324e-05,
      "longitude_deg": 82.91113443800893,
      "height_km": 482.95536465350983,
      "semi_major_axis_km": 6861.141498407922,
      "eccentricity": 0.00013091,
      "inclination_deg": 43.0021,
      "raan_deg": 37.8849,
      "arg_perigee_deg": 258.8262,
      "mean_anomaly_deg": 101.2443,
      "mean_motion_rev_day": 15.27594894
    },
    {
      "epoch": "2026-03-29T03:26:39.377184Z",
      "apogee_km": 483.72007207551906,
      "perigee_km": 482.3423494987928,
      "latitude_deg": 5.918386103850793e-05,
      "longitude_deg": 155.23485943956956,
      "height_km": 482.8741167296327,
      "semi_major_axis_km": 6861.168210787156,
      "eccentricity": 0.0001004,
      "inclination_deg": 43.0027,
      "raan_deg": 33.4527,
      "arg_perigee_deg": 264.4801,
      "mean_anomaly_deg": 95.5937,
      "mean_motion_rev_day": 15.27585973
    },
    {
      "epoch": "2026-03-30T04:33:11.150496Z",
      "apogee_km": 483.60408567658305,
      "perigee_km": 482.69482799532216,
      "latitude_deg": 5.986214508667351e-05,
      "longitude_deg": 131.66388917623982,
      "height_km": 482.8379803804937,
      "semi_major_axis_km": 6861.286456835952,
      "eccentricity": 6.626e-05,
      "inclination_deg": 43.0036,
      "raan_deg": 27.5453,
      "arg_perigee_deg": 281.1517,
      "mean_anomaly_deg": 78.9261,
      "mean_motion_rev_day": 15.27546484
    },
    {
      "epoch": "2026-03-30T12:23:56.516640Z",
      "apogee_km": 483.5162766071635,
      "perigee_km": 482.5784899256596,
      "latitude_deg": -3.7530695701373376e-05,
      "longitude_deg": 11.806138999243338,
      "height_km": 482.6024181376958,
      "semi_major_axis_km": 6861.184383266412,
      "eccentricity": 6.834e-05,
      "inclination_deg": 43.0025,
      "raan_deg": 25.6989,
      "arg_perigee_deg": 298.1586,
      "mean_anomaly_deg": 61.9196,
      "mean_motion_rev_day": 15.27580572
    },
    {
      "epoch": "2026-03-31T11:56:17.414592Z",
      "apogee_km": 483.66271584462174,
      "perigee_km": 482.37803273785994,
      "latitude_deg": -4.059331928978122e-05,
      "longitude_deg": 12.211344133872016,
      "height_km": 482.83533642341894,
      "semi_major_axis_km": 6861.157374291241,
      "eccentricity": 9.362e-05,
      "inclination_deg": 43.0048,
      "raan_deg": 20.1579,
      "arg_perigee_deg": 266.5971,
      "mean_anomaly_deg": 93.4773,
      "mean_motion_rev_day": 15.27589592
    },
    {
      "epoch": "2026-04-01T03:37:51.898368Z",
      "apogee_km": 483.9459505886025,
      "perigee_km": 482.20553536421994,
      "latitude_deg": 3.8379554366479133e-05,
      "longitude_deg": 132.48196183514924,
      "height_km": 482.8102814793551,
      "semi_major_axis_km": 6861.212742976411,
      "eccentricity": 0.00012683,
      "inclination_deg": 43.0014,
      "raan_deg": 16.4666,
      "arg_perigee_deg": 272.7803,
      "mean_anomaly_deg": 87.2904,
      "mean_motion_rev_day": 15.27571101
    },
    {
      "epoch": "2026-04-02T11:00:58.837248Z",
      "apogee_km": 483.9418814956407,
      "perigee_km": 482.0804519980011,
      "latitude_deg": 3.660440986024739e-05,
      "longitude_deg": 13.027602443292366,
      "height_km": 482.67078159220927,
      "semi_major_axis_km": 6861.148166746821,
      "eccentricity": 0.00013565,
      "inclination_deg": 43.0054,
      "raan_deg": 9.0801,
      "arg_perigee_deg": 277.2624,
      "mean_anomaly_deg": 82.8074,
      "mean_motion_rev_day": 15.27592667
    },
    {
      "epoch": "2026-04-03T10:33:19.599552Z",
      "apogee_km": 483.75919798823725,
      "perigee_km": 482.21462177364356,
      "latitude_deg": -1.7473102225979292e-05,
      "longitude_deg": 13.436619013083344,
      "height_km": 482.0521848100414,
      "semi_major_axis_km": 6861.12390988094,
      "eccentricity": 0.00011256,
      "inclination_deg": 43.0012,
      "raan_deg": 3.5424,
      "arg_perigee_deg": 23.1878,
      "mean_anomaly_deg": 336.9024,
      "mean_motion_rev_day": 15.27600768
    },
    {
      "epoch": "2026-04-04T03:49:03.285984Z",
      "apogee_km": 484.13178698410593,
      "perigee_km": 482.0923493110895,
      "latitude_deg": -1.8701318513481306e-05,
      "longitude_deg": 109.73306001438114,
      "height_km": 482.7362655155212,
      "semi_major_axis_km": 6861.249068147597,
      "eccentricity": 0.00014862,
      "inclination_deg": 43.0055,
      "raan_deg": 359.4798,
      "arg_perigee_deg": 278.6407,
      "mean_anomaly_deg": 81.4276,
      "mean_motion_rev_day": 15.2755897
    },
    {
      "epoch": "2026-04-05T01:47:15.873792Z",
      "apogee_km": 484.1337950725465,
      "perigee_km": 482.0859873254003,
      "latitude_deg": 3.913403545398813e-05,
      "longitude_deg": 134.1114890104189,
      "height_km": 483.0352087287296,
      "semi_major_axis_km": 6861.246891198974,
      "eccentricity": 0.00014923,
      "inclination_deg": 43.0006,
      "raan_deg": 354.3129,
      "arg_perigee_deg": 261.6603,
      "mean_anomaly_deg": 98.408,
      "mean_motion_rev_day": 15.27559697
    },
    {
      "epoch": "2026-04-06T01:19:36.506496Z",
      "apogee_km": 483.9096224168652,
      "perigee_km": 482.1682559634992,
      "latitude_deg": 8.558647004812822e-06,
      "longitude_deg": 134.51996997563518,
      "height_km": 482.9473103963167,
      "semi_major_axis_km": 6861.175939190182,
      "eccentricity": 0.0001269,
      "inclination_deg": 42.9995,
      "raan_deg": 348.7741,
      "arg_perigee_deg": 261.2889,
      "mean_anomaly_deg": 98.7819,
      "mean_motion_rev_day": 15.27583392
    },
    {
      "epoch": "2026-04-07T08:42:43.908480Z",
      "apogee_km": 484.03613472696634,
      "perigee_km": 482.04694184514574,
      "latitude_deg": 1.979537306192205e-05,
      "longitude_deg": 15.06448480640254,
      "height_km": 483.12607707494425,
      "semi_major_axis_km": 6861.178538286055,
      "eccentricity": 0.00014496,
      "inclination_deg": 43.0007,
      "raan_deg": 341.3884,
      "arg_perigee_deg": 251.9712,
      "mean_anomaly_deg": 108.0982,
      "mean_motion_rev_day": 15.27582524
    },
    {
      "epoch": "2026-04-08T00:24:18.194400Z",
      "apogee_km": 483.80243260117095,
      "perigee_km": 482.32933234230404,
      "latitude_deg": 2.7152542548124748e-06,
      "longitude_deg": 135.33412392753945,
      "height_km": 483.0568261953361,
      "semi_major_axis_km": 6861.202882471737,
      "eccentricity": 0.00010735,
      "inclination_deg": 43.0002,
      "raan_deg": 337.6954,
      "arg_perigee_deg": 253.0633,
      "mean_anomaly_deg": 107.0101,
      "mean_motion_rev_day": 15.27574394
    },
    {
      "epoch": "2026-04-09T01:30:47.284128Z",
      "apogee_km": 483.9808184150652,
      "perigee_km": 482.02841195704787,
      "latitude_deg": -1.6373979625091598e-05,
      "longitude_deg": 111.77304092642014,
      "height_km": 483.03533797650607,
      "semi_major_axis_km": 6861.141615186057,
      "eccentricity": 0.00014228,
      "inclination_deg": 43.0009,
      "raan_deg": 331.7867,
      "arg_perigee_deg": 254.9199,
      "mean_anomaly_deg": 105.1495,
      "mean_motion_rev_day": 15.27594855
    },
    {
      "epoch": "2026-04-10T01:03:07.927200Z",
      "apogee_km": 484.0445024242463,
      "perigee_km": 481.9344315905828,
      "latitude_deg": -1.5561309702213154e-05,
      "longitude_deg": 112.18141101003071,
      "height_km": 482.95358644623946,
      "semi_major_axis_km": 6861.126467007414,
      "eccentricity": 0.00015377,
      "inclination_deg": 42.9996,
      "raan_deg": 326.2478,
      "arg_perigee_deg": 259.7688,
      "mean_anomaly_deg": 100.299,
      "mean_motion_rev_day": 15.27599914
    },
    {
      "epoch": "2026-04-11T20:59:31.806816Z",
      "apogee_km": 484.06651622712707,
      "perigee_km": 482.07539367860045,
      "latitude_deg": 4.3884922784994544e-05,
      "longitude_deg": 160.93812205850878,
      "height_km": 482.8270290336143,
      "semi_major_axis_km": 6861.2079549528635,
      "eccentricity": 0.0001451,
      "inclination_deg": 43.0005,
      "raan_deg": 315.9085,
      "arg_perigee_deg": 271.1928,
      "mean_anomaly_deg": 88.8758,
      "mean_motion_rev_day": 15.275727
    },
    {
      "epoch": "2026-04-12T22:06:01.980864Z",
      "apogee_km": 483.9430107240587,
      "perigee_km": 482.1508694789036,
      "latitude_deg": -9.995723932408911e-06,
      "longitude_deg": 137.37427414026857,
      "height_km": 482.7815663594105,
      "semi_major_axis_km": 6861.18394010148,
      "eccentricity": 0.0001306,
      "inclination_deg": 43.003,
      "raan_deg": 310.0016,
      "arg_perigee_deg": 272.7081,
      "mean_anomaly_deg": 87.3621,
      "mean_motion_rev_day": 15.2758072
    },
    {
      "epoch": "2026-04-14T21:10:43.595328Z",
      "apogee_km": 483.9828893459753,
      "perigee_km": 482.1141768541802,
      "latitude_deg": 2.7411802075091046e-05,
      "longitude_deg": 138.18838825973523,
      "height_km": 482.81095625090387,
      "semi_major_axis_km": 6861.185533100078,
      "eccentricity": 0.00013618,
      "inclination_deg": 43.0025,
      "raan_deg": 298.9225,
      "arg_perigee_deg": 270.8907,
      "mean_anomaly_deg": 89.1789,
      "mean_motion_rev_day": 15.27580188
    },
    {
      "epoch": "2026-04-16T13:58:47.542080Z",
      "apogee_km": 483.9279407223976,
      "perigee_km": 482.16324455957056,
      "latitude_deg": -2.6120757758746505e-05,
      "longitude_deg": -125.10695183021605,
      "height_km": 482.9307030670809,
      "semi_major_axis_km": 6861.182592640984,
      "eccentricity": 0.0001286,
      "inclination_deg": 43.0007,
      "raan_deg": 289.3193,
      "arg_perigee_deg": 262.9401,
      "mean_anomaly_deg": 97.1304,
      "mean_motion_rev_day": 15.2758117
    }
  ]
}